[{"OBJECT_NAME":"CUBEL","OBJECT_ID":"2021-006AM","EPOCH":"2026-03-09T08:50:18.723264","MEAN_MOTION":15.39239773,"ECCENTRICITY":0.00073561,"INCLINATION":97.2474,"RA_OF_ASC_NODE":119.9764,"ARG_OF_PERICENTER":160.7871,"MEAN_ANOMALY":199.3654,"EPHEMERIS_TYPE":0,"CLASSIFICATION_TYPE":"U","NORAD_CAT_ID":47448,"ELEMENT_SET_NO":999,"REV_AT_EPOCH":28439,"BSTAR":0.00027955436,"MEAN_MOTION_DOT":0.0001081,"MEAN_MOTION_DDOT":0},{"OBJECT_NAME":"NUSAT-42 (M WONENBURGER)","OBJECT_ID":"2023-084AL","EPOCH":"2026-03-09T22:49:43.859712","MEAN_MOTION":15.40675763,"ECCENTRICITY":0.00061263,"INCLINATION":97.5565,"RA_OF_ASC_NODE":209.2187,"ARG_OF_PERICENTER":242.6372,"MEAN_ANOMALY":117.4251,"EPHEMERIS_TYPE":0,"CLASSIFICATION_TYPE":"U","NORAD_CAT_ID":56966,"ELEMENT_SET_NO":999,"REV_AT_EPOCH":15277,"BSTAR":0.000703676,"MEAN_MOTION_DOT":0.00028707,"MEAN_MOTION_DDOT":0}]
